STARLINK-1376           
1 45570U 20025AR  26068.26181051 -.00000290  00000+0  22869-5 0  9999
2 45570  53.1611  79.7883 0001364  91.4272 268.6885 15.29355327325433
PHISAT 2                
1 60470U 24149C   26068.78834181  .00008925  00000+0  31421-3 0  9996
2 60470  97.3806 148.6498 0001175 168.6230 191.5037 15.29548631 86792
